[{"OBJECT_NAME":"STARLINK-34089","OBJECT_ID":"2025-102T","EPOCH":"2026-03-09T12:46:59.695968","MEAN_MOTION":14.98352565,"ECCENTRICITY":0.00033576,"INCLINATION":70.0009,"RA_OF_ASC_NODE":115.0499,"ARG_OF_PERICENTER":269.0901,"MEAN_ANOMALY":90.9874,"EPHEMERIS_TYPE":0,"CLASSIFICATION_TYPE":"U","NORAD_CAT_ID":64039,"ELEMENT_SET_NO":999,"REV_AT_EPOCH":4592,"BSTAR":0.00043099448,"MEAN_MOTION_DOT":5.056e-5,"MEAN_MOTION_DDOT":0},{"OBJECT_NAME":"DOVE 3","OBJECT_ID":"2013-066P","EPOCH":"2026-03-09T13:43:10.410528","MEAN_MOTION":14.75674186,"ECCENTRICITY":0.0114756,"INCLINATION":97.6762,"RA_OF_ASC_NODE":293.4727,"ARG_OF_PERICENTER":348.5904,"MEAN_ANOMALY":11.2708,"EPHEMERIS_TYPE":0,"CLASSIFICATION_TYPE":"U","NORAD_CAT_ID":39429,"ELEMENT_SET_NO":999,"REV_AT_EPOCH":65631,"BSTAR":0.00054674,"MEAN_MOTION_DOT":4.106e-5,"MEAN_MOTION_DDOT":0}]
